<osm version="0.6" generator="CGImap 0.9.3 (4148020 spike-08.openstreetmap.org)" copyright="OpenStreetMap and contributors" attribution="http://www.openstreetmap.org/copyright" license="http://opendatacommons.org/licenses/odbl/1-0/">
<way id="589064435" visible="true" version="17" changeset="153253470" timestamp="2024-06-27T15:37:15Z" user="b-jazz-bot" uid="9451067">
<nd ref="5208857031"/>
<nd ref="9550850321"/>
<nd ref="9550850322"/>
<nd ref="5208857033"/>
<nd ref="5208857034"/>
<nd ref="9550850320"/>
<nd ref="5208857035"/>
<nd ref="5208857036"/>
<nd ref="5208857037"/>
<nd ref="5208857038"/>
<nd ref="5208857039"/>
<nd ref="11598760636"/>
<nd ref="11598760637"/>
<nd ref="5208857044"/>
<nd ref="10067418651"/>
<nd ref="10067418650"/>
<nd ref="5625275082"/>
<nd ref="5208857046"/>
<nd ref="5625275085"/>
<nd ref="5208864045"/>
<nd ref="5208857056"/>
<nd ref="5208857047"/>
<nd ref="5208857048"/>
<nd ref="5208857057"/>
<nd ref="5208857058"/>
<nd ref="5625189245"/>
<nd ref="5208857054"/>
<nd ref="5208857053"/>
<nd ref="5208857052"/>
<nd ref="5208857051"/>
<nd ref="5631067657"/>
<nd ref="5209031840"/>
<nd ref="5631067658"/>
<nd ref="5631067659"/>
<nd ref="5209031844"/>
<nd ref="5209031845"/>
<nd ref="5209031846"/>
<nd ref="5650643265"/>
<nd ref="5209025190"/>
<nd ref="5625275105"/>
<nd ref="5209025205"/>
<nd ref="5209025206"/>
<nd ref="5209025207"/>
<nd ref="5209025208"/>
<nd ref="5209025209"/>
<nd ref="5209025210"/>
<nd ref="5209025211"/>
<nd ref="5209025212"/>
<nd ref="5209025213"/>
<nd ref="5209025214"/>
<nd ref="5209025215"/>
<nd ref="5209025216"/>
<nd ref="5209025217"/>
<nd ref="5625189246"/>
<nd ref="5618738297"/>
<nd ref="5209035957"/>
<nd ref="5208947112"/>
<nd ref="5625189247"/>
<nd ref="5208857031"/>
<tag k="addr:city" v="Guadalajara"/>
<tag k="addr:housenumber" v="1421"/>
<tag k="addr:postcode" v="44430"/>
<tag k="addr:street" v="Boulevard General Marcelino García Barragán"/>
<tag k="amenity" v="university"/>
<tag k="internet_access" v="wlan"/>
<tag k="internet_access:fee" v="customers"/>
<tag k="internet_access:ssid" v="Udgmovil"/>
<tag k="isced:level" v="6"/>
<tag k="name" v="Centro Univesitario de Ciencias Exactas e Ingenierías"/>
<tag k="name:en" v="University Center of Exact Sciences and Engineering"/>
<tag k="operator" v="Universidad de Guadalajara"/>
<tag k="operator:type" v="government"/>
<tag k="short_name" v="CUCEI"/>
<tag k="website" v="https://www.cucei.udg.mx/"/>
<tag k="wheelchair" v="limited"/>
<tag k="wikidata" v="Q5014677"/>
<tag k="wikimedia_commons" v="Category:Centro Universitario de Ciencias Exactas e Ingenierías"/>
<tag k="wikipedia" v="es:Centro Universitario de Ciencias Exactas e Ingenierías"/>
</way>
</osm>